C/2015 ER61 (PANSTARRS),e,6.3366,235.1460,68.3276,499.6403,0.0000883,0.99791158,0.0000,05/10.4896/2017,2000,g 11.0,2.0
# From MPEC 2018-BF5
C/2015 E61-B (PANSTARRS),e,6.3382,235.1811,68.4168,1440,0.0000180,0.99927407,0.0000,05/10.4673/2017,2000,g 13.5,2.0
# From MPEC 2021-DA4
P/2015 F1 (PANSTARRS),e,2.8027,40.3917,187.4806,3.522411,0.1490885,0.27795918,324.9069,03/06.0/2021,2000,g 12.5,4.0
# From MPC117068
C/2015 H2 (PANSTARRS),h,09/14.2180/2016,33.6523,350.6761,288.1100,1.005667,4.979186,2000,7.5,4.0
# From MPC100280
P/2015 HG16 (PANSTARRS),e,18.7924,58.7624,47.4454,4.748431,0.0952531,0.35148954,233.2297,03/06.0/2021,2000,g 12.5,4.0
# From MPC 95213
P/2015 K5 (PANSTARRS),e,39.9448,134.1748,106.3429,6.721135,0.0565640,0.55338937,118.8212,03/06.0/2021,2000,g 13.5,4.0
# From MPC107684
P/2015 M2 (PANSTARRS),e,3.9726,86.5838,225.4852,7.229712,0.0507017,0.18102979,101.6098,03/06.0/2021,2000,g  8.5,4.0
# From MPC112390
C/2015 O1 (PANSTARRS),h,02/19.6643/2018,127.2250,299.8515,89.6284,1.001165,3.728972,2000,6.5,4.0
# From MPC 99819
P/2015 P4 (PANSTARRS),e,8.7176,104.7582,280.5685,6.049283,0.0662442,0.58472833,124.0074,03/06.0/2021,2000,g 14.0,4.0
# From MPC102952
P/2015 PD229 (Cameron-ISON),e,2.0263,342.6323,352.4575,7.182759,0.0511997,0.32817877,103.8853,03/06.0/2021,2000,g 11.5,2.0
# From MPC 99819
P/2015 Q1 (Scotti),e,22.3828,202.9011,199.8361,3.474317,0.1521948,0.47823502,307.5526,03/06.0/2021,2000,g 14.0,4.0
# From MPC 96867
P/2015 Q2 (Pimentel),e,146.4977,228.4239,244.4948,7.348216,0.0494802,0.75079016,99.3657,03/06.0/2021,2000,g 15.5,4.0
# From MPC 98562
P/2015 R1 (PANSTARRS),e,22.6798,48.4241,300.4348,5.880323,0.0691198,0.63415401,143.6140,03/06.0/2021,2000,g 14.0,4.0
# From MPC 95734
P/2015 R2 (PANSTARRS),e,15.4806,168.5991,149.7625,4.488222,0.1036555,0.45288019,216.9923,03/06.0/2021,2000,g 14.5,4.0
# From MPC117068
C/2015 T2 (PANSTARRS),e,124.5523,51.0232,30.6547,1921,0.0000117,0.99638977,0.0000,05/18.3542/2017,2000,g  8.0,4.0
# From MPC 96280
P/2015 T3 (PANSTARRS),e,13.0937,120.5019,178.6330,4.326181,0.1095335,0.50818108,359.9227,12/21.0/2014,2000,g 14.0,4.0
# From MPC102953
C/2015 T4 (PANSTARRS),e,88.0014,251.8335,270.0730,79.68995,0.0013855,0.97113897,0.0000,06/16.7633/2016,2000,g 11.0,4.0
# From MPC102953
P/2015 TO19 (Lemmon-PANSTARRS),e,6.4995,321.6519,89.1243,4.555870,0.1013554,0.35818270,185.1513,03/06.0/2021,2000,g 14.0,4.0
# From MPC110080
P/2015 TP200 (LINEAR),e,8.7775,6.9995,82.6009,7.274664,0.0502325,0.53499914,79.9159,03/06.0/2021,2000,g 11.0,4.0
# From MPC101097
C/2015 TQ209 (LINEAR),e,11.3039,223.3694,282.1435,571.5664,0.0000721,0.99752236,0.0000,08/25.2547/2016,2000,g 10.5,4.0
# From MPC115881
C/2015 V1 (PANSTARRS),e,139.2241,197.1818,179.6199,2272,0.0000091,0.99812058,0.0000,12/16.8024/2017,2000,g  6.5,4.0
# From MPC112390
C/2015 V2 (Johnson),h,06/11.8384/2017,49.8519,69.9058,165.0016,1.001862,1.644652,2000,5.0,4.0
# From MPC104791
C/2015 V4 (PANSTARRS),e,60.7881,179.9376,306.9654,18.47030,0.0124163,0.70439352,20.4971,03/06.0/2021,2000,g  8.5,4.0
# From MPC115881
C/2015 VL62 (Lemmon-Yeung-PANSTARRS),h,08/27.8687/2017,165.8172,95.1083,128.8097,1.001248,2.718567,2000,8.0,4.0
# From MPC102098
C/2015 WZ (PANSTARRS),e,134.6341,40.1967,66.7591,147.3224,0.0005512,0.99062323,0.0000,04/13.7192/2016,2000,g 15.0,4.0
# From MPC109142
C/2015 W1 (Gibbs),e,87.3625,114.3163,48.1647,2595,0.0000075,0.99913529,0.0000,05/13.5794/2016,2000,g 13.0,4.0
# From MPC101098
P/2015 W2 (Catalina),e,11.6070,294.2497,117.4942,7.295528,0.0500172,0.63396082,99.1943,03/06.0/2021,2000,g 13.0,4.0
# From MPC101098
P/2015 X1 (PANSTARRS),e,12.1515,161.7677,218.9277,3.632138,0.1423838,0.41903578,281.6657,03/06.0/2021,2000,g 16.0,4.0
# From MPEC 2020-AA5
C/2015 XY1 (Lemmon),h,04/27.4739/2018,148.8543,281.6192,196.2160,1.002493,7.923508,2000,5.5,4.0
# From MPC 97498
P/2015 X3 (PANSTARRS),e,24.3877,77.3108,306.6571,5.009110,0.0879151,0.43895783,179.0582,03/06.0/2021,2000,g 15.0,4.0
# From MPC119995
C/2015 X5 (PANSTARRS),h,12/29.1701/2017,124.3082,122.3459,27.6422,1.001586,6.796670,2000,7.5,4.0
# From MPC115881
P/2015 X6 (PANSTARRS),e,4.5647,106.9471,329.8630,2.753425,0.2157218,0.17261650,30.1768,03/06.0/2021,2000,g 16.0,4.0
# From MPC109143
C/2015 X7 (ATLAS),e,57.5595,139.9320,348.3668,8299,0.0000013,0.99955655,0.0000,07/29.0864/2016,2000,g  9.0,4.0
# From MPC109143
C/2015 Y1 (LINEAR),e,71.1630,135.8186,24.6517,240.1692,0.0002648,0.98952330,0.0000,05/13.3297/2016,2000,g 12.0,4.0
# From MPC119995
C/2016 A1 (PANSTARRS),h,11/22.3677/2017,121.2052,128.2081,10.2228,1.001081,5.321942,2000,6.0,4.0
# From MPC100282
P/2016 A2 (Christensen),e,26.4057,291.6157,141.4745,4.751611,0.0951574,0.27060867,198.7397,03/06.0/2021,2000,g 11.5,4.0
# From MPC115881
P/2016 A3 (PANSTARRS),e,8.5100,187.2516,341.0160,7.889555,0.0444760,0.38695921,62.5802,03/06.0/2021,2000,g 10.0,4.0
# From MPC102098
P/2016 A7 (PANSTARRS),e,16.6174,221.4907,352.6219,5.032348,0.0873068,0.56503245,160.3817,03/06.0/2021,2000,g 16.0,4.0
# From MPC106345
C/2016 A8 (LINEAR),e,148.2430,111.3444,130.4405,34.33584,0.0048987,0.94494073,8.0823,03/06.0/2021,2000,g 12.0,4.0
# From MPC107048
C/2016 B1 (NEOWISE),e,50.4465,232.0147,8.6866,438.7437,0.0001072,0.99266825,0.0000,12/04.4829/2016,2000,g  9.5,4.0
# From MPC109143
P/2016 BA14 (PANSTARRS),e,18.8935,180.5278,351.8896,3.025269,0.1873087,0.66521936,340.6465,03/06.0/2021,2000,g 21.0,4.0
# From MPC110494
C/2016 C1 (PANSTARRS),h,02/18.0838/2016,56.2377,181.8225,328.7114,1.001645,8.463204,2000,5.5,4.0
# From MPC101098
C/2016 C2 (NEOWISE),e,38.0314,24.4285,214.5851,65.95293,0.0018401,0.97619591,0.0000,04/19.0606/2016,2000,g 16.0,4.0
# From MPC110494
C/2016 E1 (PANSTARRS),h,06/04.4158/2017,131.8854,233.0861,47.4797,1.006328,8.178824,2000,6.5,4.0
# From MPC102098
P/2016 G1 (PANSTARRS),e,10.9678,204.0380,111.2139,2.583610,0.2373360,0.21122353,356.1630,03/06.0/2021,2000,g 14.0,4.0
# From MPEC 2017-D91
P/2016 J1-A (PANSTARRS),e,14.3263,199.8130,46.9339,3.173560,0.1743348,0.22805148,298.7221,03/06.0/2021,2000,g 16.5,4.0
# From MPEC 2017-A77
P/2016 J1-B (PANSTARRS),e,14.3291,199.8179,46.8250,3.173189,0.1743653,0.22790227,298.8491,03/06.0/2021,2000,g 17.0,4.0
# From MPC101099
C/2016 J2 (Denneau),e,130.3264,186.4382,318.6591,648.3234,0.0000597,0.99765772,0.0000,04/12.5938/2016,2000,g 17.0,4.0
# From MPC104792
C/2016 K1 (LINEAR),h,07/13.5661/2016,90.9437,325.6126,18.3217,1.000207,2.295919,2000,13.0,4.0
# From MPC119995
C/2016 M1 (PANSTARRS),e,90.9844,92.2139,209.9067,9002,0.0000012,0.99975416,0.0000,08/10.4180/2018,2000,g  5.0,4.0
# From MPC115881
C/2016 N4 (MASTER),e,72.6245,353.9940,55.9403,2818,0.0000066,0.99886545,0.0000,09/16.6775/2017,2000,g  8.5,4.0
# From MPC119995
C/2016 N6 (PANSTARRS),e,105.8410,298.9881,162.7124,1403,0.0000187,0.99810103,0.0000,07/17.9911/2018,2000,g  7.0,4.0
# From MPC102099
P/2016 P1 (PANSTARRS),e,24.4563,319.5648,270.0891,3.193632,0.1726938,0.28913950,343.3802,03/06.0/2021,2000,g 15.0,4.0
# From MPC102099
C/2016 P4 (PANSTARRS),e,29.8803,320.7243,356.2390,414.6965,0.0001167,0.98577810,0.0000,10/18.6108/2016,2000,g 10.5,4.0
# From MPC118093
C/2016 Q2 (PANSTARRS),h,05/11.8256/2021,109.3883,322.2961,84.5242,1.000388,7.081867,2000,6.0,4.0
# From MPC102955
C/2016 Q4 (Kowalski),e,7.2559,271.2905,99.4465,16.93682,0.0141402,0.58159226,16.0225,03/06.0/2021,2000,g  7.0,4.0
# From MPC119995
C/2016 R2 (PANSTARRS),e,58.2371,80.5596,33.1538,510.9369,0.0000853,0.99490738,0.0000,05/09.0964/2018,2000,g  7.0,4.0
# From MPC102099
C/2016 R3 (Borisov),e,53.0324,78.7588,118.1761,198.1539,0.0003533,0.99771083,0.0000,10/10.0482/2016,2000,g 18.0,4.0
# From MPC109144
P/2016 R4 (Gibbs),e,10.8737,168.2694,174.0304,5.331530,0.0800620,0.47629710,135.1336,03/06.0/2021,2000,g 12.5,4.0
# From MPC105543
P/2016 S1 (PANSTARRS),e,94.6771,227.5526,273.2788,8.278402,0.0413794,0.70998050,60.0423,03/06.0/2021,2000,g 12.0,4.0
# From MPC105238
C/2016 T1 (Matheny),e,129.8505,56.3331,137.4758,125.0857,0.0007045,0.98156809,0.0000,02/01.3835/2017,2000,g 14.5,4.0
# From MPC107685
C/2016 T2 (Matheny),e,81.3979,339.1822,92.2070,99.23759,0.0009970,0.98081492,0.0000,12/29.3777/2016,2000,g 14.5,4.0
# From MPC110082
C/2016 T3 (PANSTARRS),e,22.6827,271.7268,194.6304,130.9833,0.0006575,0.97978978,0.0000,09/06.4179/2017,2000,g 10.5,4.0
# From MPC103847
C/2016 U1 (NEOWISE),h,01/13.8107/2017,46.3001,61.5566,162.8179,1.000406,0.323483,2000,17.0,4.0
# From MPC106345
C/2016 VZ18 (PANSTARRS),e,23.9789,98.9205,36.4053,162.6610,0.0004751,0.99437796,0.0000,03/05.3854/2017,2000,g 19.5,4.0
# From MPC106345
P/2016 WM48 (Lemmon),e,117.4557,59.9043,36.0845,8.165215,0.0422428,0.78382767,62.1531,03/06.0/2021,2000,g 15.0,4.0
# From MPC119995
C/2016 X1 (Lemmon),e,26.4530,256.4052,224.4955,1271,0.0000217,0.99405088,0.0000,04/28.4701/2019,2000,g  6.0,4.0
# From MPC108594
C/2017 A1 (PANSTARRS),e,49.7925,121.0441,2.0066,76.01850,0.0014870,0.96987397,2.0668,03/06.0/2021,2000,g 13.0,4.0
# From MPC108594
C/2017 A3 (Elenin),e,98.5278,97.8951,303.9911,43.43608,0.0034429,0.91147137,5.1475,03/06.0/2021,2000,g  9.5,4.0
# From MPC114598
C/2017 AB5 (PANSTARRS),e,32.4424,42.6368,78.3258,2317,0.0000088,0.99602367,0.0000,02/15.2848/2018,2000,g  5.5,4.0
# From MPC119995
C/2017 B3 (LINEAR),h,02/02.5608/2019,54.1682,2.1792,284.7974,1.001563,3.923332,2000,6.0,4.0
# From MPC103847
P/2017 B4 (PANSTARRS),e,20.0584,121.4578,11.0197,4.410520,0.1064068,0.36495152,359.9130,01/05.0/2017,2000,g 14.5,4.0
# From MPC104793
C/2017 C1 (NEOWISE),e,65.7619,357.5544,110.0584,20.57827,0.0105582,0.92717079,15.9169,03/06.0/2021,2000,g 18.0,4.0
# From MPC107685
C/2017 C2 (PANSTARRS),e,118.5856,249.7676,138.5797,96.05128,0.0010470,0.97478200,0.0000,01/21.4511/2017,2000,g 14.0,4.0
# From MPC104793
P/2017 D1 (Fuls),e,20.7557,82.1803,8.0376,4.829842,0.0928549,0.43625050,159.3575,03/06.0/2021,2000,g 14.0,4.0
# From MPC112391
C/2017 D2 (Barros),e,31.2578,330.9516,334.5408,5217,0.0000026,0.99952247,0.0000,07/14.9042/2017,2000,g 11.0,4.0
# From MPC114598
